{
  "type": "FeatureCollection",
  "features": [
    {
      "type": "Feature",
      "properties": {
        "norad_id": 34420,
        "name": "COSMOS 2251 DEB",
        "group": "cosmos-2251-debris",
        "lat": -62.87843775996925,
        "lon": 87.53618514163287,
        "alt_km": 622.1739656773188,
        "timestamp": "2025-12-03T15:48:03.460585+00:00",
        "meta_object_name": "COSMOS 2251 DEB",
        "meta_object_id": "1993-036RM",
        "meta_epoch": "2025-12-03T04:54:42.743232",
        "meta_mean_motion": 14.68250489,
        "meta_eccentricity": 0.01069677,
        "meta_inclination": 74.0319,
        "meta_ra_of_asc_node": 122.4019,
        "meta_arg_of_pericenter": 245.7142,
        "meta_mean_anomaly": 168.4499,
        "meta_ephemeris_type": 0,
        "meta_classification_type": "U",
        "meta_norad_cat_id": 34420,
        "meta_element_set_no": 999,
        "meta_rev_at_epoch": 89630,
        "meta_bstar": 0.00034557984,
        "meta_mean_motion_dot": 2.137e-05,
        "meta_mean_motion_ddot": 0,
        "tle_line1": "1 34420U 93036RM  25337.20466138  .00002137  00000+0  34558-3 0  9994",
        "tle_line2": "2 34420  74.0319 122.4019 0106967 245.7142 168.4499 14.68250489896306"
      },
      "geometry": {
        "type": "Point",
        "coordinates": [
          87.53618514163287,
          -62.87843775996925
        ]
      }
    },
    {
      "type": "Feature",
      "properties": {
        "norad_id": 34425,
        "name": "COSMOS 2251 DEB",
        "group": "cosmos-2251-debris",
        "lat": -39.15993151728643,
        "lon": -94.5836395111316,
        "alt_km": 675.8612870712413,
        "timestamp": "2025-12-03T15:48:03.460594+00:00",
        "meta_object_name": "COSMOS 2251 DEB",
        "meta_object_id": "1993-036RS",
        "meta_epoch": "2025-12-03T08:13:28.483392",
        "meta_mean_motion": 14.62031768,
        "meta_eccentricity": 0.00255174,
        "meta_inclination": 74.0205,
        "meta_ra_of_asc_node": 72.5255,
        "meta_arg_of_pericenter": 200.9922,
        "meta_mean_anomaly": 159.02,
        "meta_ephemeris_type": 0,
        "meta_classification_type": "U",
        "meta_norad_cat_id": 34425,
        "meta_element_set_no": 999,
        "meta_rev_at_epoch": 88603,
        "meta_bstar": 0.00097852845,
        "meta_mean_motion_dot": 4.906e-05,
        "meta_mean_motion_ddot": 0,
        "tle_line1": "1 34425U 93036RS  25337.34269078  .00004906  00000+0  97853-3 0  9991",
        "tle_line2": "2 34425  74.0205  72.5255 0025517 200.9922 159.0200 14.62031768886038"
      },
      "geometry": {
        "type": "Point",
        "coordinates": [
          -94.5836395111316,
          -39.15993151728643
        ]
      }
    },
    {
      "type": "Feature",
      "properties": {
        "norad_id": 34429,
        "name": "COSMOS 2251 DEB",
        "group": "cosmos-2251-debris",
        "lat": -72.9644256202465,
        "lon": 117.94512147136811,
        "alt_km": 464.0194542935851,
        "timestamp": "2025-12-03T15:48:03.460603+00:00",
        "meta_object_name": "COSMOS 2251 DEB",
        "meta_object_id": "1993-036RW",
        "meta_epoch": "2025-12-03T01:12:03.144096",
        "meta_mean_motion": 15.36756361,
        "meta_eccentricity": 0.0005451,
        "meta_inclination": 73.9725,
        "meta_ra_of_asc_node": 189.0065,
        "meta_arg_of_pericenter": 40.4282,
        "meta_mean_anomaly": 111.1699,
        "meta_ephemeris_type": 0,
        "meta_classification_type": "U",
        "meta_norad_cat_id": 34429,
        "meta_element_set_no": 999,
        "meta_rev_at_epoch": 89299,
        "meta_bstar": 0.0051308649,
        "meta_mean_motion_dot": 0.00189054,
        "meta_mean_motion_ddot": 0,
        "tle_line1": "1 34429U 93036RW  25337.05003639  .00189054  00000+0  51309-2 0  9995",
        "tle_line2": "2 34429  73.9725 189.0065 0005451  40.4282 111.1699 15.36756361892999"
      },
      "geometry": {
        "type": "Point",
        "coordinates": [
          117.94512147136811,
          -72.9644256202465
        ]
      }
    },
    {
      "type": "Feature",
      "properties": {
        "norad_id": 34430,
        "name": "COSMOS 2251 DEB",
        "group": "cosmos-2251-debris",
        "lat": 15.609340903475886,
        "lon": -35.29959140810934,
        "alt_km": 719.0827353564428,
        "timestamp": "2025-12-03T15:48:03.460613+00:00",
        "meta_object_name": "COSMOS 2251 DEB",
        "meta_object_id": "1993-036RX",
        "meta_epoch": "2025-12-03T05:43:10.672608",
        "meta_mean_motion": 14.39583071,
        "meta_eccentricity": 0.00598819,
        "meta_inclination": 74.051,
        "meta_ra_of_asc_node": 320.8926,
        "meta_arg_of_pericenter": 32.9649,
        "meta_mean_anomaly": 327.5216,
        "meta_ephemeris_type": 0,
        "meta_classification_type": "U",
        "meta_norad_cat_id": 34430,
        "meta_element_set_no": 999,
        "meta_rev_at_epoch": 87818,
        "meta_bstar": 0.00065925108,
        "meta_mean_motion_dot": 2.077e-05,
        "meta_mean_motion_ddot": 0,
        "tle_line1": "1 34430U 93036RX  25337.23831797  .00002077  00000+0  65925-3 0  9990",
        "tle_line2": "2 34430  74.0510 320.8926 0059881  32.9649 327.5216 14.39583071878186"
      },
      "geometry": {
        "type": "Point",
        "coordinates": [
          -35.29959140810934,
          15.609340903475886
        ]
      }
    },
    {
      "type": "Feature",
      "properties": {
        "norad_id": 34431,
        "name": "COSMOS 2251 DEB",
        "group": "cosmos-2251-debris",
        "lat": -73.63543410607467,
        "lon": 115.13627974500243,
        "alt_km": 806.0225622756407,
        "timestamp": "2025-12-03T15:48:03.460622+00:00",
        "meta_object_name": "COSMOS 2251 DEB",
        "meta_object_id": "1993-036RY",
        "meta_epoch": "2025-12-03T01:04:59.473920",
        "meta_mean_motion": 14.28727352,
        "meta_eccentricity": 0.00687591,
        "meta_inclination": 74.074,
        "meta_ra_of_asc_node": 192.7465,
        "meta_arg_of_pericenter": 181.072,
        "meta_mean_anomaly": 179.0293,
        "meta_ephemeris_type": 0,
        "meta_classification_type": "U",
        "meta_norad_cat_id": 34431,
        "meta_element_set_no": 999,
        "meta_rev_at_epoch": 87004,
        "meta_bstar": 0.00069984948,
        "meta_mean_motion_dot": 1.781e-05,
        "meta_mean_motion_ddot": 0,
        "tle_line1": "1 34431U 93036RY  25337.04513280  .00001781  00000+0  69985-3 0  9995",
        "tle_line2": "2 34431  74.0740 192.7465 0068759 181.0720 179.0293 14.28727352870048"
      },
      "geometry": {
        "type": "Point",
        "coordinates": [
          115.13627974500243,
          -73.63543410607467
        ]
      }
    },
    {
      "type": "Feature",
      "properties": {
        "norad_id": 34432,
        "name": "COSMOS 2251 DEB",
        "group": "cosmos-2251-debris",
        "lat": 40.90951661400036,
        "lon": 132.8868548194614,
        "alt_km": 1004.4817065457773,
        "timestamp": "2025-12-03T15:48:03.460631+00:00",
        "meta_object_name": "COSMOS 2251 DEB",
        "meta_object_id": "1993-036RZ",
        "meta_epoch": "2025-12-03T02:28:17.071104",
        "meta_mean_motion": 14.02836729,
        "meta_eccentricity": 0.01831849,
        "meta_inclination": 73.8275,
        "meta_ra_of_asc_node": 119.3014,
        "meta_arg_of_pericenter": 203.436,
        "meta_mean_anomaly": 276.5797,
        "meta_ephemeris_type": 0,
        "meta_classification_type": "U",
        "meta_norad_cat_id": 34432,
        "meta_element_set_no": 999,
        "meta_rev_at_epoch": 85549,
        "meta_bstar": 0.0016054633,
        "meta_mean_motion_dot": 2.856e-05,
        "meta_mean_motion_ddot": 0,
        "tle_line1": "1 34432U 93036RZ  25337.10297536  .00002856  00000+0  16055-2 0  9999",
        "tle_line2": "2 34432  73.8275 119.3014 0183184 203.4360 276.5797 14.02836729855498"
      },
      "geometry": {
        "type": "Point",
        "coordinates": [
          132.8868548194614,
          40.90951661400036
        ]
      }
    },
    {
      "type": "Feature",
      "properties": {
        "norad_id": 34433,
        "name": "COSMOS 2251 DEB",
        "group": "cosmos-2251-debris",
        "lat": 68.74092497780832,
        "lon": -56.45146642353996,
        "alt_km": 940.2636573128293,
        "timestamp": "2025-12-03T15:48:03.460639+00:00",
        "meta_object_name": "COSMOS 2251 DEB",
        "meta_object_id": "1993-036SA",
        "meta_epoch": "2025-12-03T00:00:45.111168",
        "meta_mean_motion": 14.12779901,
        "meta_eccentricity": 0.01517359,
        "meta_inclination": 74.0107,
        "meta_ra_of_asc_node": 172.1866,
        "meta_arg_of_pericenter": 312.4155,
        "meta_mean_anomaly": 46.4228,
        "meta_ephemeris_type": 0,
        "meta_classification_type": "U",
        "meta_norad_cat_id": 34433,
        "meta_element_set_no": 999,
        "meta_rev_at_epoch": 85812,
        "meta_bstar": 0.0017302028,
        "meta_mean_motion_dot": 3.559e-05,
        "meta_mean_motion_ddot": 0,
        "tle_line1": "1 34433U 93036SA  25337.00052212  .00003559  00000+0  17302-2 0  9996",
        "tle_line2": "2 34433  74.0107 172.1866 0151735 312.4155  46.4228 14.12779901858123"
      },
      "geometry": {
        "type": "Point",
        "coordinates": [
          -56.45146642353996,
          68.74092497780832
        ]
      }
    }
  ]
}